CBERS 4A                
1 44883U 19093E   26182.61170677  .00001255  00000+0  16721-3 0  9995
2 44883  98.0190 250.0641 0000634 126.2386 233.8885 14.81423932353213
WEILAI 1R               
1 44884U 19093F   26182.59015771  .00005684  00000+0  45143-3 0  9996
2 44884  97.7878 272.4995 0017122 352.8755   7.2223 15.00766907354584
FLORIPASAT-1            
1 44885U 19093G   26182.53010698  .00007040  00000+0  51272-3 0  9992
2 44885  97.7946 276.8657 0012013  28.2595 331.9280 15.04030761354805
SHUNTIAN                
1 44886U 19093H   26182.59640959  .00005035  00000+0  46233-3 0  9991
2 44886  97.8020 270.6841 0012127  25.5841 334.5978 14.95229357354338
GONETS-M 14             
1 44905U 19096A   26182.61837412  .00000137  00000+0  91476-3 0  9998
2 44905  82.5237  75.6947 0014094 117.8705 242.3805 12.42870624295473
GONETS-M 15             
1 44906U 19096B   26182.64776260  .00000152  00000+0  10246-2 0  9997
2 44906  82.5257  76.1402 0015557 140.2004 220.0220 12.42872185295440
GONETS-M 16             
1 44907U 19096C   26182.67373584  .00000194  00000+0  13301-2 0  9994
2 44907  82.5202  75.0696 0010376 180.8993 179.2070 12.42892556295436
RS-44 & BREEZE-KM R/B   
1 44909U 19096E   26182.46868719  .00000000  00000+0 -51615-4 0  9991
2 44909  82.5231 330.2141 0218549 110.9217 251.5427 12.79748938304172
JILIN-1 KUANFU 01       
1 45016U 20003A   26182.52578711  .00003036  00000+0  18648-3 0  9997
2 45016  97.5027 256.2016 0008192 248.8987 111.1367 15.10802529357497
XINGYUN-2 01            
1 45602U 20028A   26182.63693025  .00001930  00000+0  11645-3 0  9994
2 45602  97.4869 174.7513 0010055 144.2217 215.9689 15.11865834337029
XINGYUN-2 02            
1 45603U 20028B   26182.61812221  .00001991  00000+0  12098-3 0  9994
2 45603  97.5065 188.3555 0009765 215.1225 144.9362 15.11593027337019
HAIYANG-1D              
1 45721U 20036A   26182.62409236 -.00000142  00000+0 -35387-4 0  9999
2 45721  98.4561 123.9904 0003959  97.8040 262.3595 14.34176856317048
M2 PATHFINDER           
1 45727U 20037E   26182.47735576  .00003267  00000+0  23602-3 0  9993
2 45727  97.8144  13.8690 0012783 104.1091 256.1556 15.04739933327640
GAOFEN DUOMO (GFDM)     
1 45856U 20042A   26182.63841840  .00000379  00000+0  60799-4 0  9992
2 45856  97.7742 241.9989 0011827  32.9083 327.2862 14.76898141323144
ZIYUAN 3-03 (ZY 3-03)   
1 45939U 20051A   26182.65468714  .00008288  00000+0  37254-3 0  9997
2 45939  97.2832 249.9118 0002116 262.5775  97.5221 15.21374962329540
NEMO-HD                 
1 46277U 20061F   26182.57542133  .00013492  00000+0  28899-3 0  9991
2 46277  97.1911 244.3850 0001552  73.8124 286.3296 15.44885189324200
NAPA-1                  
1 46320U 20061BA  26182.64085885  .00088056  00000+0  72822-3 0  9997
2 46320  97.2456 257.3141 0001789 183.9632 176.1616 15.70008412324005
JILIN-1 GAOFEN 3E       
1 46457U 20065D   26182.61327369  .00080308  00000+0  79588-3 0  9993
2 46457  97.2224 235.5723 0012153 113.3953 246.8587 15.65470652322017
JILIN-1 GAOFEN 3F       
1 46458U 20065E   26182.60049401  .00067418  00000+0  75240-3 0  9999
2 46458  97.2179 232.8233 0013648 101.6238 258.6553 15.62464418321955
JILIN-1 GAOFEN 3G       
1 46459U 20065F   26182.59281097  .00122040  00000+0  84763-3 0  9990
2 46459  97.2247 239.8713 0005198 356.9809   3.1423 15.74045643322208
JILIN-1 GAOFEN 3H       
1 46460U 20065G   26182.59857205  .00097285  00000+0  80355-3 0  9997
2 46460  97.2188 236.1129 0004203 257.0895 102.9898 15.70000445322141
HAIYANG-2C              
1 46469U 20066A   26182.62471600 -.00000026  00000+0  49839-4 0  9993
2 46469  65.9946 179.3373 0008315 237.5739 122.4525 13.83377070291491
HJ-2A                   
1 46478U 20067A   26182.59973699  .00001148  00000+0  17181-3 0  9994
2 46478  97.8831 260.6314 0002955 199.1210 160.9889 14.76535687310381
HJ-2B                   
1 46479U 20067B   26182.56844255  .00000530  00000+0  83116-4 0  9993
2 46479  97.8896 261.6345 0001581  98.9081 261.2308 14.76575146310389
GONETS-M 17             
1 46486U 20068A   26182.61852725 -.00000057  00000+0 -47983-3 0  9996
2 46486  82.4994 338.5229 0022454   6.6457 353.4916 12.42873327260955
GONETS-M 18             
1 46487U 20068B   26182.58217927 -.00000084  00000+0 -68073-3 0  9995
2 46487  82.4948 337.6579 0019669   3.4617 356.6595 12.42873949260936
