OBJECT_NAME,OBJECT_ID,EPOCH,MEAN_MOTION,ECCENTRICITY,INCLINATION,RA_OF_ASC_NODE,ARG_OF_PERICENTER,MEAN_ANOMALY,EPHEMERIS_TYPE,CLASSIFICATION_TYPE,NORAD_CAT_ID,ELEMENT_SET_NO,REV_AT_EPOCH,BSTAR,MEAN_MOTION_DOT,MEAN_MOTION_DDOT
CBERS 4A,2019-093E,2026-07-01T14:40:51.464928,14.81423932,.00006348,98.0190,250.0641,126.2386,233.8885,0,U,44883,999,35321,.16721098E-3,.1255E-4,0
WEILAI 1R,2019-093F,2026-07-01T14:09:49.626144,15.00766907,.00171227,97.7878,272.4995,352.8755,7.2223,0,U,44884,999,35458,.4514274E-3,.5684E-4,0
FLORIPASAT-1,2019-093G,2026-07-01T12:43:21.243072,15.04030761,.00120139,97.7946,276.8657,28.2595,331.9280,0,U,44885,999,35480,.51272226E-3,.704E-4,0
SHUNTIAN,2019-093H,2026-07-01T14:18:49.788576,14.95229357,.00121272,97.8020,270.6841,25.5841,334.5978,0,U,44886,999,35433,.46233114E-3,.5035E-4,0
GONETS-M 14,2019-096A,2026-07-01T14:50:27.523968,12.42870624,.00140944,82.5237,75.6947,117.8705,242.3805,0,U,44905,999,29547,.91475673E-3,.137E-5,0
GONETS-M 15,2019-096B,2026-07-01T15:32:46.688640,12.42872185,.00155573,82.5257,76.1402,140.2004,220.0220,0,U,44906,999,29544,.10245502E-2,.152E-5,0
GONETS-M 16,2019-096C,2026-07-01T16:10:10.776576,12.42892556,.00103767,82.5202,75.0696,180.8993,179.2070,0,U,44907,999,29543,.13300522E-2,.194E-5,0
RS-44 & BREEZE-KM R/B,2019-096E,2026-07-01T11:14:54.573216,12.79748938,.0218549,82.5231,330.2141,110.9217,251.5427,0,U,44909,999,30417,-.51614706E-4,0,0
JILIN-1 KUANFU 01,2020-003A,2026-07-01T12:37:08.006304,15.10802529,.00081923,97.5027,256.2016,248.8987,111.1367,0,U,45016,999,35749,.18648362E-3,.3036E-4,0
XINGYUN-2 01,2020-028A,2026-07-01T15:17:10.773600,15.11865834,.00100557,97.4869,174.7513,144.2217,215.9689,0,U,45602,999,33702,.11645322E-3,.193E-4,0
XINGYUN-2 02,2020-028B,2026-07-01T14:50:05.758944,15.11593027,.00097651,97.5065,188.3555,215.1225,144.9362,0,U,45603,999,33701,.12097922E-3,.1991E-4,0
HAIYANG-1D,2020-036A,2026-07-01T14:58:41.579904,14.34176856,.00039598,98.4561,123.9904,97.8040,262.3595,0,U,45721,999,31704,-.35387458E-4,-.142E-5,0
M2 PATHFINDER,2020-037E,2026-07-01T11:27:23.537664,15.04739933,.0012783,97.8144,13.8690,104.1091,256.1556,0,U,45727,999,32764,.2360209E-3,.3267E-4,0
GAOFEN DUOMO (GFDM),2020-042A,2026-07-01T15:19:19.349760,14.76898141,.00118278,97.7742,241.9989,32.9083,327.2862,0,U,45856,999,32314,.60799166E-4,.379E-5,0
ZIYUAN 3-03 (ZY 3-03),2020-051A,2026-07-01T15:42:44.968896,15.21374962,.00021168,97.2832,249.9118,262.5775,97.5221,0,U,45939,999,32954,.37254302E-3,.8288E-4,0
NEMO-HD,2020-061F,2026-07-01T13:48:36.402912,15.44885189,.0001552,97.1911,244.3850,73.8124,286.3296,0,U,46277,999,32420,.28898885E-3,.13492E-3,0
NAPA-1,2020-061BA,2026-07-01T15:22:50.204640,15.70008412,.0001789,97.2456,257.3141,183.9632,176.1616,0,U,46320,999,32400,.72821953E-3,.88056E-3,0
JILIN-1 GAOFEN 3E,2020-065D,2026-07-01T14:43:06.846816,15.65470652,.00121533,97.2224,235.5723,113.3953,246.8587,0,U,46457,999,32201,.79587711E-3,.80308E-3,0
JILIN-1 GAOFEN 3F,2020-065E,2026-07-01T14:24:42.682464,15.62464418,.00136488,97.2179,232.8233,101.6238,258.6553,0,U,46458,999,32195,.75240114E-3,.67418E-3,0
JILIN-1 GAOFEN 3G,2020-065F,2026-07-01T14:13:38.867808,15.74045643,.00051988,97.2247,239.8713,356.9809,3.1423,0,U,46459,999,32220,.84762847E-3,.12204E-2,0
JILIN-1 GAOFEN 3H,2020-065G,2026-07-01T14:21:56.625120,15.70000445,.00042036,97.2188,236.1129,257.0895,102.9898,0,U,46460,999,32214,.80354558E-3,.97285E-3,0
HAIYANG-2C,2020-066A,2026-07-01T14:59:35.462400,13.83377070,.00083152,65.9946,179.3373,237.5739,122.4525,0,U,46469,999,29149,.49838825E-4,-.26E-6,0
HJ-2A,2020-067A,2026-07-01T14:23:37.275936,14.76535687,.00029553,97.8831,260.6314,199.1210,160.9889,0,U,46478,999,31038,.17181258E-3,.1148E-4,0
HJ-2B,2020-067B,2026-07-01T13:38:33.436320,14.76575146,.00015818,97.8896,261.6345,98.9081,261.2308,0,U,46479,999,31038,.83116308E-4,.53E-5,0
GONETS-M 17,2020-068A,2026-07-01T14:50:40.754400,12.42873327,.00224546,82.4994,338.5229,6.6457,353.4916,0,U,46486,999,26095,-.47983255E-3,-.57E-6,0
GONETS-M 18,2020-068B,2026-07-01T13:58:20.288928,12.42873949,.00196697,82.4948,337.6579,3.4617,356.6595,0,U,46487,999,26093,-.68072583E-3,-.84E-6,0
